[{"OBJECT_NAME":"ASTROCAST-0402","OBJECT_ID":"2023-001DE","EPOCH":"2026-03-09T19:21:31.190400","MEAN_MOTION":15.26734153,"ECCENTRICITY":0.00042092,"INCLINATION":97.5556,"RA_OF_ASC_NODE":160.6821,"ARG_OF_PERICENTER":216.6984,"MEAN_ANOMALY":143.3966,"EPHEMERIS_TYPE":0,"CLASSIFICATION_TYPE":"U","NORAD_CAT_ID":55109,"ELEMENT_SET_NO":999,"REV_AT_EPOCH":12936,"BSTAR":0.00041835119,"MEAN_MOTION_DOT":0.0001093,"MEAN_MOTION_DDOT":0},{"OBJECT_NAME":"STARLINK-31396","OBJECT_ID":"2024-064M","EPOCH":"2026-03-09T22:16:52.760352","MEAN_MOTION":15.27565375,"ECCENTRICITY":0.00016695,"INCLINATION":43.0039,"RA_OF_ASC_NODE":44.3141,"ARG_OF_PERICENTER":276.9218,"MEAN_ANOMALY":83.1443,"EPHEMERIS_TYPE":0,"CLASSIFICATION_TYPE":"U","NORAD_CAT_ID":59409,"ELEMENT_SET_NO":999,"REV_AT_EPOCH":10932,"BSTAR":-3.344012e-5,"MEAN_MOTION_DOT":-1.182e-5,"MEAN_MOTION_DDOT":0}]
